[{"OBJECT_NAME":"LIZZIESAT-1 (LS-1)","OBJECT_ID":"2024-043AL","EPOCH":"2026-03-09T21:24:55.126944","MEAN_MOTION":15.26635712,"ECCENTRICITY":0.00099234,"INCLINATION":97.5461,"RA_OF_ASC_NODE":203.4772,"ARG_OF_PERICENTER":229.9925,"MEAN_ANOMALY":130.0443,"EPHEMERIS_TYPE":0,"CLASSIFICATION_TYPE":"U","NORAD_CAT_ID":59132,"ELEMENT_SET_NO":999,"REV_AT_EPOCH":11178,"BSTAR":0.0002232873,"MEAN_MOTION_DOT":5.784e-5,"MEAN_MOTION_DDOT":0},{"OBJECT_NAME":"STARLINK-31702","OBJECT_ID":"2024-076X","EPOCH":"2026-03-09T04:45:32.583456","MEAN_MOTION":15.27570248,"ECCENTRICITY":0.00016186,"INCLINATION":43.003,"RA_OF_ASC_NODE":12.1073,"ARG_OF_PERICENTER":250.6764,"MEAN_ANOMALY":109.3912,"EPHEMERIS_TYPE":0,"CLASSIFICATION_TYPE":"U","NORAD_CAT_ID":59585,"ELEMENT_SET_NO":999,"REV_AT_EPOCH":10642,"BSTAR":-7.2845953e-5,"MEAN_MOTION_DOT":-2.266e-5,"MEAN_MOTION_DDOT":0}]
